OBJECT_NAME,OBJECT_ID,EPOCH,MEAN_MOTION,ECCENTRICITY,INCLINATION,RA_OF_ASC_NODE,ARG_OF_PERICENTER,MEAN_ANOMALY,EPHEMERIS_TYPE,CLASSIFICATION_TYPE,NORAD_CAT_ID,ELEMENT_SET_NO,REV_AT_EPOCH,BSTAR,MEAN_MOTION_DOT,MEAN_MOTION_DDOT
QIANFAN-105,2025-233Q,2026-07-23T06:19:26.188320,13.51021418,.00022216,89.0004,39.2990,92.3671,267.7735,0,U,66047,999,3821,.53813575E-4,.47E-6,0
QIANFAN-106,2025-233R,2026-07-23T11:33:19.849536,13.51015805,.00022908,88.9973,39.4786,82.1773,277.9638,0,U,66048,999,3808,.4440102E-4,.41E-6,0
QIANFAN-107,2025-233S,2026-07-23T06:25:12.695520,13.51015226,.00020885,88.9989,39.5386,93.9331,266.2058,0,U,66049,999,3806,.49970204E-4,.44E-6,0
QIANFAN-108,2025-233T,2026-07-23T11:51:03.086208,13.51016582,.00022526,88.9982,39.5008,82.7044,277.4363,0,U,66050,999,3809,.74549722E-4,.6E-6,0
2025-234B,2025-234B,2026-07-23T10:35:35.986272,15.21369326,.00098243,97.4743,273.4171,335.0018,25.0741,0,U,66054,999,4215,.20841627E-3,.4606E-4,0
2025-234C,2025-234C,2026-07-23T14:03:44.511840,15.24454840,.00153121,97.4235,272.6382,36.4565,323.7712,0,U,66055,999,4223,.1944347E-3,.4716E-4,0
2025-234D,2025-234D,2026-07-23T04:27:01.098432,15.20434855,.0001619,97.4227,271.5851,225.1218,134.9886,0,U,66056,999,4212,.63467261E-3,.13791E-3,0
STARLINK-35552,2025-235A,2026-07-23T14:45:49.606272,15.34390294,.00010165,53.1617,328.8081,81.2706,278.8412,0,U,66058,999,4380,.63981486E-3,.21296E-3,0
STARLINK-35560,2025-235B,2026-07-22T15:13:38.433504,15.34408572,.00008861,53.1680,337.6574,306.5517,53.5404,0,U,66059,999,4359,.94688254E-3,.3176E-3,0
STARLINK-35558,2025-235C,2026-07-23T09:20:15.915840,15.30174849,.00012334,53.1588,335.2497,89.6678,270.4465,0,U,66060,999,4369,.4472503E-3,.129E-3,0
STARLINK-35566,2025-235D,2026-07-23T00:24:39.023712,15.30236506,.00011993,53.1616,336.4796,58.7198,301.3920,0,U,66061,999,4364,.82618728E-3,.24217E-3,0
STARLINK-35421,2025-235E,2026-07-23T09:16:46.551360,15.34391796,.00012872,53.1564,333.8180,86.2135,273.9015,0,U,66062,999,4371,.51175693E-3,.16949E-3,0
STARLINK-35562,2025-235F,2026-07-23T09:32:25.027296,15.30219839,.00014364,53.1599,335.2941,95.4547,264.6617,0,U,66063,999,4369,.33782793E-3,.9665E-4,0
STARLINK-35542,2025-235G,2026-07-23T09:05:04.135776,15.30204036,.00007987,53.1605,335.1803,93.4529,266.6563,0,U,66064,999,4369,-.59975937E-4,-.2135E-4,0
STARLINK-35375,2025-235H,2026-07-23T09:29:23.088768,15.30216750,.00012009,53.1595,335.2870,106.4652,253.6481,0,U,66065,999,4369,.57570353E-3,.16739E-3,0
STARLINK-35179,2025-235J,2026-07-23T09:11:09.103200,15.30177859,.00009026,53.1604,335.2078,91.3375,268.7729,0,U,66066,999,4369,.21005512E-2,.62333E-3,0
STARLINK-35401,2025-235K,2026-07-22T19:00:28.884672,15.34429621,.00012416,53.1573,336.5040,94.4734,265.6411,0,U,66067,999,4359,.71357004E-3,.23832E-3,0
STARLINK-35422,2025-235L,2026-07-23T09:19:50.349216,15.34327704,.00005677,53.1599,333.8262,352.5910,7.5084,0,U,66068,999,4368,.98288784E-3,.32902E-3,0
STARLINK-35279,2025-235M,2026-07-23T08:24:02.377728,15.30213711,.00034977,53.1602,334.9985,111.8774,248.2599,0,U,66069,999,4369,.90177208E-3,.26458E-3,0
STARLINK-35295,2025-235N,2026-07-23T09:23:18.741696,15.30180337,.00009285,53.1589,335.2564,92.4558,267.6549,0,U,66070,999,4369,.22599664E-3,.6336E-4,0
STARLINK-35323,2025-235P,2026-07-22T17:59:19.430016,15.30224258,.00020105,53.1609,337.6493,76.0429,284.0795,0,U,66071,999,4360,.80901423E-3,.23696E-3,0
STARLINK-35299,2025-235Q,2026-07-23T09:25:52.095648,15.34408175,.00010305,53.1600,333.8559,104.4819,255.6298,0,U,66072,999,4371,.41983275E-3,.13838E-3,0
STARLINK-35274,2025-235R,2026-07-23T09:24:49.337280,15.30210220,.00022752,53.1484,335.2567,110.6915,249.4330,0,U,66073,999,4369,.75936152E-3,.22206E-3,0
STARLINK-35321,2025-235S,2026-07-23T09:15:42.338016,15.30198166,.00008493,53.1588,335.2244,334.0794,26.0165,0,U,66074,999,4369,.85247013E-3,.24972E-3,0
STARLINK-35131,2025-235T,2026-07-23T09:22:50.276352,15.34395829,.00008768,53.1545,333.8356,9.9623,350.1397,0,U,66075,999,4371,.8857285E-3,.29664E-3,0
STARLINK-34801,2025-235U,2026-07-23T09:06:36.095616,15.30196401,.00018655,53.1583,335.1845,94.8136,265.3078,0,U,66076,999,4369,.66474377E-3,.19378E-3,0
STARLINK-35129,2025-235V,2026-07-23T09:44:02.680512,15.34455617,.00007328,53.1575,333.9295,137.3387,222.7673,0,U,66077,999,4371,.12223571E-2,.41223E-3,0
STARLINK-35116,2025-235W,2026-07-23T09:47:04.797024,15.34410424,.00015847,53.1565,333.9379,335.2471,24.8455,0,U,66078,999,4371,.94298581E-3,.31629E-3,0
STARLINK-35402,2025-235X,2026-07-21T18:42:12.178368,15.30219265,.00008128,53.1615,342.2576,51.3446,308.7627,0,U,66079,999,4345,.60020524E-3,.1747E-3,0
STARLINK-35325,2025-235Y,2026-07-23T09:01:38.280864,15.34411998,.00031939,53.1540,333.7428,112.6872,247.4468,0,U,66080,999,4371,.11052675E-2,.3717E-3,0
