QIANFAN-105             
1 66047U 25233Q   26204.26349755  .00000047  00000+0  53814-4 0  9998
2 66047  89.0004  39.2990 0002221  92.3671 267.7735 13.51021418 38210
QIANFAN-106             
1 66048U 25233R   26204.48147974  .00000041  00000+0  44401-4 0  9998
2 66048  88.9973  39.4786 0002290  82.1773 277.9638 13.51015805 38088
QIANFAN-107             
1 66049U 25233S   26204.26750805  .00000044  00000+0  49970-4 0  9997
2 66049  88.9989  39.5386 0002088  93.9331 266.2058 13.51015226 38060
QIANFAN-108             
1 66050U 25233T   26204.49378572  .00000060  00000+0  74550-4 0  9991
2 66050  88.9982  39.5008 0002252  82.7044 277.4363 13.51016582 38098
2025-234B               
1 66054U 25234B   26204.44138873  .00004606  00000+0  20842-3 0  9993
2 66054  97.4743 273.4171 0009824 335.0018  25.0741 15.21369326 42154
2025-234C               
1 66055U 25234C   26204.58593185  .00004716  00000+0  19443-3 0  9997
2 66055  97.4235 272.6382 0015312  36.4565 323.7712 15.24454840 42238
2025-234D               
1 66056U 25234D   26204.18542938  .00013791  00000+0  63467-3 0  9992
2 66056  97.4227 271.5851 0001619 225.1218 134.9886 15.20434855 42128
STARLINK-35552          
1 66058U 25235A   26204.61515748  .00021296  00000+0  63981-3 0  9992
2 66058  53.1617 328.8081 0001016  81.2706 278.8412 15.34390294 43809
STARLINK-35560          
1 66059U 25235B   26203.63447261  .00031760  00000+0  94688-3 0  9993
2 66059  53.1680 337.6574 0000886 306.5517  53.5404 15.34408572 43596
STARLINK-35558          
1 66060U 25235C   26204.38907310  .00012900  00000+0  44725-3 0  9996
2 66060  53.1588 335.2497 0001233  89.6678 270.4465 15.30174849 43698
STARLINK-35566          
1 66061U 25235D   26204.01711833  .00024217  00000+0  82619-3 0  9998
2 66061  53.1616 336.4796 0001199  58.7198 301.3920 15.30236506 43645
STARLINK-35421          
1 66062U 25235E   26204.38664990  .00016949  00000+0  51176-3 0  9997
2 66062  53.1564 333.8180 0001287  86.2135 273.9015 15.34391796 43715
STARLINK-35562          
1 66063U 25235F   26204.39751189  .00009665  00000+0  33783-3 0  9997
2 66063  53.1599 335.2941 0001436  95.4547 264.6617 15.30219839 43695
STARLINK-35542          
1 66064U 25235G   26204.37852009 -.00002135  00000+0 -59976-4 0  9999
2 66064  53.1605 335.1803 0000798  93.4529 266.6563 15.30204036 43693
STARLINK-35375          
1 66065U 25235H   26204.39540612  .00016739  00000+0  57570-3 0  9996
2 66065  53.1595 335.2870 0001200 106.4652 253.6481 15.30216750 43699
STARLINK-35179          
1 66066U 25235J   26204.38274425  .00062333  00000+0  21006-2 0  9997
2 66066  53.1604 335.2078 0000902  91.3375 268.7729 15.30177859 43691
STARLINK-35401          
1 66067U 25235K   26203.79200098  .00023832  00000+0  71357-3 0  9993
2 66067  53.1573 336.5040 0001241  94.4734 265.6411 15.34429621 43594
STARLINK-35422          
1 66068U 25235L   26204.38877719  .00032902  00000+0  98289-3 0  9991
2 66068  53.1599 333.8262 0000567 352.5910   7.5084 15.34327704 43681
STARLINK-35279          
1 66069U 25235M   26204.35002752  .00026458  00000+0  90177-3 0  9993
2 66069  53.1602 334.9985 0003497 111.8774 248.2599 15.30213711 43694
STARLINK-35295          
1 66070U 25235N   26204.39118914  .00006336  00000+0  22600-3 0  9996
2 66070  53.1589 335.2564 0000928  92.4558 267.6549 15.30180337 43694
STARLINK-35323          
1 66071U 25235P   26203.74953044  .00023696  00000+0  80901-3 0  9992
2 66071  53.1609 337.6493 0002010  76.0429 284.0795 15.30224258 43602
STARLINK-35299          
1 66072U 25235Q   26204.39296407  .00013838  00000+0  41983-3 0  9992
2 66072  53.1600 333.8559 0001030 104.4819 255.6298 15.34408175 43715
STARLINK-35274          
1 66073U 25235R   26204.39223770  .00022206  00000+0  75936-3 0  9990
2 66073  53.1484 335.2567 0002275 110.6915 249.4330 15.30210220 43692
STARLINK-35321          
1 66074U 25235S   26204.38590669  .00024972  00000+0  85247-3 0  9992
2 66074  53.1588 335.2244 0000849 334.0794  26.0165 15.30198166 43691
STARLINK-35131          
1 66075U 25235T   26204.39085968  .00029664  00000+0  88573-3 0  9993
2 66075  53.1545 333.8356 0000876   9.9623 350.1397 15.34395829 43712
STARLINK-34801          
1 66076U 25235U   26204.37958444  .00019378  00000+0  66474-3 0  9997
2 66076  53.1583 335.1845 0001865  94.8136 265.3078 15.30196401 43695
STARLINK-35129          
1 66077U 25235V   26204.40558658  .00041223  00000+0  12224-2 0  9992
2 66077  53.1575 333.9295 0000732 137.3387 222.7673 15.34455617 43717
STARLINK-35116          
1 66078U 25235W   26204.40769441  .00031629  00000+0  94299-3 0  9999
2 66078  53.1565 333.9379 0001584 335.2471  24.8455 15.34410424 43715
STARLINK-35402          
1 66079U 25235X   26202.77930762  .00017470  00000+0  60021-3 0  9998
2 66079  53.1615 342.2576 0000812  51.3446 308.7627 15.30219265 43457
STARLINK-35325          
1 66080U 25235Y   26204.37613751  .00037170  00000+0  11053-2 0  9993
2 66080  53.1540 333.7428 0003193 112.6872 247.4468 15.34411998 43718
